LUCAS (JDRS-1)          
1 47202U 20089A   24227.01993810 -.00000225  00000+0  00000+0 0  9990
2 47202   0.0135 101.5390 0002775  30.5526 288.8028  1.00271269 13656
SXM-7                   
1 47240U 20096A   24227.16838439 -.00000195  00000+0  00000+0 0  9997
2 47240   0.0146 116.7164 0004836   5.0586 176.7282  1.00270678 13593
CMS-01                  
1 47256U 20099A   24226.84412081 -.00000154  00000+0  00000+0 0  9997
2 47256   0.0431  90.4489 0004851 171.0526  88.1267  1.00270387 13451
TURKSAT 5A              
1 47306U 21001A   24226.90531302  .00000164  00000+0  00000+0 0  9992
2 47306   0.0239  94.7307 0000180  25.5684 199.3468  1.00272044 13223
TIANTONG-1 3            
1 47321U 21003A   24226.84394677 -.00000141  00000+0  00000+0 0  9992
2 47321   2.7640 313.2773 0003735 211.8164 182.9855  1.00270334 13221
TJS-6                   
1 47613U 21010A   24226.79164618  .00000053  00000+0  00000+0 0  9999
2 47613   0.3097 268.7228 0003272 284.1608 233.3236  1.00269560 13061
SBIRS GEO-5 (USA 315)   
1 48618U 21042A   24226.54552750  .00000135  00000+0  00000+0 0  9992
2 48618   6.0593 325.7548 0001840 181.8663  32.1314  1.00272852 11982
FENGYUN 4B              
1 48808U 21047A   24226.85537895 -.00000321  00000+0  00000+0 0  9993
2 48808   0.1318  76.7567 0005536  36.7207 262.0600  1.00274552 11829
SXM-8                   
1 48838U 21049A   24227.32889609 -.00000196  00000+0  00000+0 0  9994
2 48838   0.0201 355.9179 0006381  43.8360 316.7152  1.00271760 11895
TIANLIAN 1-05           
1 49011U 21063A   24226.83106742  .00000118  00000+0  00000+0 0  9992
2 49011   0.1651 292.8492 0003225 228.0601 117.7687  1.00272551 11335
STAR ONE D2             
1 49055U 21069A   24226.88521080 -.00000254  00000+0  00000+0 0  9999
2 49055   0.0297  94.1317 0002711  62.4143  54.9083  1.00271948 11192
EUTELSAT QUANTUM        
1 49056U 21069B   24226.90835882  .00000136  00000+0  00000+0 0  9999
2 49056   0.0315 284.7640 0002528 211.0212 201.7557  1.00274747 11182
ZHONGXING-2E            
1 49062U 21071A   24226.85672885 -.00000282  00000+0  00000+0 0  9998
2 49062   0.0158 140.7951 0000919  30.6181 197.8467  1.00272500 11294
TJS-7                   
1 49115U 21077A   24226.59333538 -.00000114  00000+0  00000+0 0  9997
2 49115   0.4537  86.8615 0001771  67.7960 282.0129  1.00272331  2821
CHINASAT 9B             
1 49125U 21080A   24225.65236155 -.00000301  00000+0  00000+0 0  9993
2 49125   0.0362  98.2390 0003183  59.8635 139.7052  1.00268411 10894
SHIJIAN-21 (SJ-21)      
1 49330U 21094A   24227.53537640 -.00000235  00000+0  00000+0 0  9994
2 49330   9.9172  44.8220 0079429  35.2123 222.0168  1.00295834 10527
SES-17                  
1 49332U 21095A   24227.45814478 -.00000263  00000+0  00000+0 0  9996
2 49332   0.0155  84.0182 0001178  49.0990 288.0727  1.00269125 11108
SYRACUSE 4A             
1 49333U 21095B   24227.19493854  .00000145  00000+0  00000+0 0  9997
2 49333   0.0129 120.5408 0001443  18.8540 299.3904  1.00270458 11256
QZS-1R                  
1 49336U 21096A   24217.59575160 -.00000318  00000+0  00000+0 0  9998
2 49336  36.0403  89.7920 0759158 272.4058 296.0519  1.00241649 10179
ZHONGXING-1D            
1 49505U 21114A   24226.88206392 -.00000327  00000+0  00000+0 0  9997
2 49505   0.0549 256.3346 0001281 352.5430 161.6011  1.00269021 10082
STPSAT-6                
1 49817U 21118A   24227.23466090 -.00000036  00000+0  00000+0 0  9997
2 49817   0.0111 117.6295 0000282  26.6651 151.6674  1.00270954  9831
LDPE-1                  
1 49818U 21118B   24226.86023531 -.00000009  00000+0  00000+0 0  9995
2 49818   2.4204  87.3127 0000105 232.0267 117.2108  1.00557035  9881
EXPRESS AMU-7           
1 50001U 21123A   24224.70656275 -.00000232  00000+0  00000+0 0  9993
2 50001   0.0075  52.0095 0000122 215.6193  92.3695  1.00272416  9773
EXPRESS AMU-3           
1 50002U 21123B   24225.82015861 -.00000311  00000+0  00000+0 0  9996
2 50002   0.0102  76.6508 0000300 226.2645  57.0833  1.00271569   281
TIANLIAN 2-02           
1 50005U 21124A   24226.79016681 -.00000003  00000+0  00000+0 0  9996
2 50005   0.5275 273.2539 0001258 253.9456 250.9252  1.00272228  9875
TURKSAT 5B              
1 50212U 21126A   24226.98035611  .00000156  00000+0  00000+0 0  9991
2 50212   0.0698 339.8064 0001597  10.8912   7.1184  1.00272806  9557
INMARSAT 6-F1           
1 50319U 21128A   24227.48808056 -.00000163  00000+0  00000+0 0  9997
2 50319   0.0072  88.5803 0000295 356.7637 137.4962  1.00271076  9504
SHIYAN 12 01 (SY-12 01) 
1 50321U 21129A   24227.63931487 -.00000066  00000+0  00000+0 0  9995
2 50321   1.9302  89.9400 0002619  89.8317 174.2253  1.00434948  9783
SHIYAN 12 02 (SY-12 02) 
1 50322U 21129B   24227.73811281 -.00000196  00000+0  00000+0 0  9990
2 50322   1.9301  89.9534 0001942 140.2783  91.1773  1.00068211  9777
TJS-9                   
1 50574U 21135A   24226.85483991 -.00000288  00000+0  00000+0 0  9993
2 50574   0.0284 116.5387 0004899  41.3164 249.8579  1.00274050  9694
USA 324                 
1 51280U 22006A   24212.47994906 -.00000290  00000+0  00000+0 0  9995
2 51280   1.8482  87.9234 0003716   6.2404 170.3382  1.00113997   518
USA 325                 
1 51281U 22006B   24212.08382896 -.00000141  00000+0  00000+0 0  9997
2 51281   0.4384  86.5889 0000834 179.1587 155.9483  1.00130418   514
GOES 18                 
1 51850U 22021A   24227.42113997  .00000106  00000+0  00000+0 0  9994
2 51850   0.0029 230.9868 0000516 246.8337 220.1058  1.00271626  9061
ZHONGXING-6D            
1 52255U 22038A   24226.75629655 -.00000343  00000+0  00000+0 0  9994
2 52255   0.0655 260.8811 0001674 300.7206 158.3932  1.00273180  8673
NILESAT 301             
1 52817U 22061A   24226.89774205 -.00000048  00000+0  00000+0 0  9993
2 52817   0.0542 334.4311 0002751 110.5969 193.9300  1.00271318  7994
CMS-02 (GSAT 24)        
1 52903U 22067A   24227.13023788 -.00000155  00000+0  00000+0 0  9995
2 52903   0.1416 267.2862 0007587 192.3152 353.3262  1.00271727  7868
MEASAT 3D               
1 52904U 22067B   24227.48964697 -.00000233  00000+0  00000+0 0  9994
2 52904   0.0578 291.7943 0000417 255.1964  44.1811  1.00272591  7903
SES-22                  
1 52933U 22071A   24227.22677873  .00000114  00000+0  00000+0 0  9997
2 52933   0.0576 275.6720 0001146 284.1204  65.9698  1.00271883  7824
WFOV (USA 332)          
1 52940U 22073A   24227.56473846 -.00000355  00000+0  00000+0 0  9996
2 52940   1.9714  87.4212 0001821 358.1307 200.5053  1.00269110  7627
TIANLIAN 2-03           
1 53100U 22078A   24225.85075268  .00000084  00000+0  00000+0 0  9994
2 53100   1.0841 278.4733 0001778 217.5596 142.5408  1.00272468  7806
SBIRS GEO-6 (USA 336)   
1 53355U 22092A   24226.71221056 -.00000276  00000+0  00000+0 0  9990
2 53355   4.4591 311.2792 0002307 181.2317 225.5079  1.00271775  7496
EUTELSAT KONNECT VHTS   
1 53765U 22110A   24226.98591326  .00000027  00000+0  00000+0 0  9998
2 53765   0.0467  95.5514 0002910  31.8946 193.0842  1.00268387  7040
ZHONGXING-1E            
1 53813U 22112A   24226.84385975 -.00000139  00000+0  00000+0 0  9995
2 53813   0.0320 267.7205 0000743 263.1290 177.1226  1.00270853  7103
SES-20                  
1 53960U 22123A   24226.87868411 -.00000091  00000+0  00000+0 0  9991
2 53960   0.0198 199.8637 0002195 259.4689  76.6780  1.00271023  6798
SES-21                  
1 53961U 22123B   24227.57399931  .00000078  00000+0  00000+0 0  9990
2 53961   0.0198  37.1792 0000978 109.6676 252.2543  1.00270861  6815
GALAXY 33 (G-33)        
1 54026U 22128A   24227.28246022  .00000088  00000+0  00000+0 0  9999
2 54026   0.0165  96.6924 0002054  41.7874 153.3943  1.00273127  7007
GALAXY 34 (G-34)        
1 54027U 22128B   24227.57516053  .00000068  00000+0  00000+0 0  9994
2 54027   0.0141  82.2982 0001395  70.7354 248.4817  1.00273166  7042
ANGOSAT 2               
1 54033U 22131A   24224.97211235  .00000147  00000+0  00000+0 0  9998
2 54033   0.0215 191.5717 0000132 253.9997 248.3014  1.00273749  6704
EUTELSAT HOTBIRD 13F    
1 54048U 22134A   24226.90174510  .00000097  00000+0  00000+0 0  9990
2 54048   0.0668 286.0520 0001979  83.6965 290.6958  1.00272328  6706
LDPE-2                  
1 54219U 22144A   24226.88686424 -.00000260  00000+0  00000+0 0  9993
2 54219   3.9515  65.0464 0000155 193.9349 321.1133  0.99990818  5079
EUTELSAT HOTBIRD 13G    
1 54225U 22146A   24226.97322747  .00000097  00000+0  00000+0 0  9994
2 54225   0.0573 256.2132 0002074 276.4926 153.5251  1.00272182  6477
ZHONGXING-19            
1 54230U 22148A   24226.78860038 -.00000069  00000+0  00000+0 0  9991
2 54230   0.0305 256.9285 0006409 328.1916 184.8744  1.00272172  6622
GALAXY 31 (G-31)        
1 54243U 22153A   24226.66053497  .00000024  00000+0  00000+0 0  9991
2 54243   0.0138 114.1642 0001470  23.2646 301.9381  1.00272217   429
GALAXY 32 (G-32)        
1 54244U 22153B   24227.45335853 -.00000165  00000+0  00000+0 0  9996
2 54244   0.0179  69.7591 0001096   4.8319 320.9715  1.00271555  6432
EUTELSAT 10B            
1 54259U 22157A   24226.90113594  .00000078  00000+0  00000+0 0  9993
2 54259   0.0480  94.4790 0000985 332.9315 229.8171  1.00271464  6281
GALAXY 35 (G-35)        
1 54741U 22170A   24227.28452972 -.00000153  00000+0  00000+0 0  9997
2 54741   0.0156 103.7025 0002117  39.4590 189.3556  1.00271439  6161
GALAXY 36 (G-36)        
1 54742U 22170B   24226.88146883 -.00000175  00000+0  00000+0 0  9998
2 54742   0.0205 214.8316 0003078 264.8929  71.3965  1.00271191  6036
METEOSAT-12 (MTG-I1)    
1 54743U 22170C   24227.32830894  .00000003  00000+0  00000+0 0  9990
2 54743   0.5883  47.5934 0002081  77.3725 316.0916  1.00275409  6238
SHIJIAN-23 (SJ-23)      
1 55131U 23002A   24227.55169411  .00000131  00000+0  00000+0 0  9994
2 55131   1.9786  87.0226 0000549  42.5449  76.0430  1.00466697  5957
